NOAA 1 [-]              
1 04793U 70106A   22325.91116528 -.00000021  00000+0  14175-3 0  9998
2 04793 101.5375  25.6357 0031508  16.4039 157.6967 12.54009135377328
NOAA 2 (ITOS-D) [-]     
1 06235U 72082A   22325.89391083 -.00000029  00000+0  10680-3 0  9999
2 06235 101.9724 309.2089 0004095 130.9186 296.8835 12.53154116291922
NOAA 3 [-]              
1 06920U 73086A   22325.82637080 -.00000028  00000+0  13557-3 0  9993
2 06920 102.2269 307.9294 0006750   1.8957  62.2167 12.40350474220304
NOAA 4 [-]              
1 07529U 74089A   22325.79235119 -.00000028  00000+0  11127-3 0  9997
2 07529 101.9340 305.9977 0008890 161.5793 265.9245 12.53162607196259
NOAA 5 [-]              
1 09057U 76077A   22325.76252274 -.00000027  00000+0  13770-3 0  9997
2 09057 102.1230 292.1938 0009420 209.2088 221.0354 12.37776663 93209
TIROS N [-]             
1 11060U 78096A   22326.14754918  .00000121  00000+0  79026-4 0  9993
2 11060  98.6155  15.5557 0011336  53.6330 306.5890 14.18440815494202
NOAA 6 [-]              
1 11416U 79057A   22326.04670373  .00000224  00000+0  96532-4 0  9992
2 11416  98.6615 337.1414 0010888 148.7050 211.4785 14.33840386264317
NOAA 7 [-]              
1 12553U 81059A   22326.14914931  .00000073  00000+0  58800-4 0  9990
2 12553  98.9792  12.3695 0011939  31.9827 328.2070 14.17357118140354
NOAA 8 [-]              
1 13923U 83022A   22326.40773076  .00000101  00000+0  57401-4 0  9994
2 13923  98.6998 316.4408 0016103 106.3942 253.9011 14.28857925 65228
NOAA 9 [-]              
1 15427U 84123A   22325.78904358  .00000113  00000+0  80186-4 0  9996
2 15427  99.0665 300.7979 0015816  79.9725 345.9128 14.16247348958881
NOAA 10 [-]             
1 16969U 86073A   22325.75218899  .00000097  00000+0  56311-4 0  9993
2 16969  98.5844 309.1352 0011588 207.4901 325.8513 14.28246479883283
NOAA 11 [-]             
1 19531U 88089A   22325.71029740  .00000046  00000+0  44478-4 0  9996
2 19531  98.4414 306.2757 0012279  85.8620 274.3958 14.15335416763064
NOAA 12 [-]             
1 21263U 91032A   22325.80387520  .00000068  00000+0  46433-4 0  9993
2 21263  98.5223 321.2783 0012645 236.4891 123.5081 14.26029877639152
NOAA 13 [-]             
1 22739U 93050A   22326.44194493  .00000093  00000+0  72049-4 0  9990
2 22739  98.5255 298.5142 0008414 249.6283 110.3987 14.12883726509602
NOAA 14 [-]             
1 23455U 94089A   22325.83409850  .00000037  00000+0  40780-4 0  9992
2 23455  98.4376 343.9547 0008618 227.3877 132.6571 14.14220493438956
NOAA 15 [B]             
1 25338U 98030A   22326.41526176  .00000131  00000+0  72731-4 0  9996
2 25338  98.6297 353.7809 0010178 191.4003 168.6949 14.26198934275783
NOAA 16 [-]             
1 26536U 00055A   22325.84307391  .00000057  00000+0  52978-4 0  9997
2 26536  98.6166  19.1600 0011555  78.0852 282.1616 14.13360178439583
NOAA 17 [-]             
1 27453U 02032A   22326.19071656  .00000114  00000+0  67458-4 0  9997
2 27453  98.6903 269.7285 0011910 168.0591 192.0873 14.25168493 61335
NOAA 18 [B]             
1 28654U 05018A   22326.42278600  .00000185  00000+0  12348-3 0  9997
2 28654  98.9344  36.6152 0013469 242.8773 117.1026 14.12810605902370
NOAA 19 [+]             
1 33591U 09005A   22326.37136884  .00000150  00000+0  10604-3 0  9999
2 33591  99.1305   3.6991 0014810 104.0403 256.2416 14.12640932710741
SUOMI NPP [+]           
1 37849U 11061A   22326.44750560  .00000062  00000+0  50329-4 0  9996
2 37849  98.7475 262.8923 0001054  90.0377  18.1109 14.19562636573605
NOAA 20 [+]             
1 43013U 17073A   22326.39042222  .00000040  00000+0  39514-4 0  9997
2 43013  98.7314 262.5557 0000950  53.9167 306.2097 14.19560902259631
